BADR-6                  
1 33154U 08034B   24294.24771792  .00000142  00000+0  00000+0 0  9996
2 33154   1.2801  85.8508 0002864 108.9388 309.8361  1.00268353 59698
ECHOSTAR 11             
1 33207U 08035A   24294.56155623 -.00000060  00000+0  00000+0 0  9990
2 33207   0.0416  75.0727 0002798 131.7347 274.8773  1.00271256 45155
SUPERBIRD-C2            
1 33274U 08038A   24294.61674858 -.00000255  00000+0  00000+0 0  9995
2 33274   0.7929  88.9679 0001822 146.6203 159.9700  1.00270102 99664
AMC-21                  
1 33275U 08038B   24294.53959892  .00000033  00000+0  00000+0 0  9994
2 33275   1.3793  88.0471 0003260 132.1914 238.6229  1.00271912 59431
INMARSAT 4-F3           
1 33278U 08039A   24294.56320512 -.00000143  00000+0  00000+0 0  9995
2 33278   3.8007  28.3815 0002849 190.1645 275.7400  1.00271438 40486
NIMIQ 4                 
1 33373U 08044A   24294.43799144 -.00000224  00000+0  00000+0 0  9994
2 33373   0.0207 262.8305 0001538 301.8027 260.4581  1.00273081 58926
GALAXY 19 (G-19)        
1 33376U 08045A   24294.56488757 -.00000143  00000+0  00000+0 0  9997
2 33376   0.0147 263.0998 0002957 309.1546 283.6380  1.00272192 58775
ASTRA 1M                
1 33436U 08057A   24294.30049392  .00000116  00000+0  00000+0 0  9996
2 33436   0.0902  83.3485 0005057 101.4141 331.8504  1.00270709 39677
EUTELSAT HOTBIRD 13C    
1 33459U 08065A   24294.35813184 -.00000103  00000+0  00000+0 0  9990
2 33459   1.3851  86.0253 0005701 137.9169 281.8104  1.00271547 41283
EXPRESS-AM44            
1 33595U 09007A   24294.31299549 -.00000091  00000+0  00000+0 0  9993
2 33595   1.8982  85.7533 0004396 128.8493 276.3672  1.00271444 46223
NSS-9                   
1 33749U 09008A   24294.57074755  .00000068  00000+0  00000+0 0  9996
2 33749   0.0467  60.5378 0002302 146.3984 211.1361  1.00269860 57454
EUTELSAT 33E            
1 33750U 09008B   24292.39239437 -.00000149  00000+0  00000+0 0  9997
2 33750   1.1001  87.3605 0005285 125.6484 220.2310  1.00270653 57356
TELSTAR 11N             
1 34111U 09009A   24294.36924331 -.00000254  00000+0  00000+0 0  9990
2 34111   0.0143 232.8126 0002638 328.7523 283.1258  1.00268657 40180
WGS F2 (USA 204)        
1 34713U 09017A   24294.41924424  .00000064  00000+0  00000+0 0  9994
2 34713   0.0106 234.0468 0000744  34.9659 328.7876  1.00269332 39554
SES-7 (PROTOSTAR 2)     
1 34941U 09027A   24294.59498993 -.00000349  00000+0  00000+0 0  9991
2 34941   0.1020  78.7079 0001910 174.6640  98.6385  1.00270315 56563
MEASAT-3A               
1 35362U 09032A   24294.54899163 -.00000115  00000+0  00000+0 0  9995
2 35362   0.0448  82.7870 0002909 167.6720 136.6449  1.00271559  1967
GOES 14                 
1 35491U 09033A   24294.55433656 -.00000069  00000+0  00000+0 0  9999
2 35491   0.1102  91.7158 0003763  99.7135 289.0798  1.00270583   539
FM-5                    
1 35493U 09034A   24294.43799144 -.00000204  00000+0  00000+0 0  9997
2 35493   0.0239 264.5655 0000587 331.7944 224.5774  1.00273628 40581
TERRESTAR-1             
1 35496U 09035A   24294.35882623 -.00000059  00000+0  00000+0 0  9995
2 35496   4.6702  48.0084 0002964 170.7287 188.7855  1.00272523 56066
ASIASAT 5               
1 35696U 09042A   24294.59107120 -.00000312  00000+0  00000+0 0  9995
2 35696   0.0406  97.5690 0001651 101.6301 143.6512  1.00273619 55643
JCSAT-12 (JCSAT-RA)     
1 35755U 09044A   24294.19146865 -.00000331  00000+0  00000+0 0  9999
2 35755   0.0980  89.0010 0000726  71.5663  69.5832  1.00275483 55547
OPTUS D3                
1 35756U 09044B   24294.58591088 -.00000151  00000+0  00000+0 0  9994
2 35756   0.3289  84.3840 0002826 141.8368 170.2601  1.00272243 55497
NIMIQ 5                 
1 35873U 09050A   24294.38591231 -.00000260  00000+0  00000+0 0  9990
2 35873   0.0323  95.3634 0003250 127.6049 232.6149  1.00270330 55288
AMAZONAS 2              
1 35942U 09054A   24294.38035500 -.00000286  00000+0  00000+0 0  9991
2 35942   0.2426  93.7796 0005145 122.4819 249.2233  1.00270950 55124
COMSATBW-1              
1 35943U 09054B   24294.56299524  .00000020  00000+0  00000+0 0  9995
2 35943   0.0709  80.2133 0004247 152.0985  62.9135  1.00273201 55233
NSS-12                  
1 36032U 09058A   24294.56854940  .00000067  00000+0  00000+0 0  9999
2 36032   0.0634  69.3294 0003879 151.1816  70.6991  1.00271072 54856
THOR 6                  
1 36033U 09058B   24294.30743817 -.00000013  00000+0  00000+0 0  9994
2 36033   0.0168 144.6878 0002133  84.6199 269.8158  1.00269883 54944
INTELSAT 14 (IS-14)     
1 36097U 09064A   24294.32966153 -.00000277  00000+0  00000+0 0  9995
2 36097   0.0023  92.7866 0002768 124.7598 245.4452  1.00272364 54548
EUTELSAT 36B            
1 36101U 09065A   24294.28938219  .00000152  00000+0  00000+0 0  9990
2 36101   0.0795 331.1821 0005439 246.0306 312.1099  1.00272129 54643
INTELSAT 15 (IS-15)     
1 36106U 09067A   24294.62830814 -.00000190  00000+0  00000+0 0  9990
2 36106   0.0179 246.9062 0002422 323.5734 130.4627  1.00271724 35163
WGS F3 (USA 211)        
1 36108U 09068A   24294.59876477  .00000036  00000+0  00000+0 0  9992
2 36108   0.1971  88.1909 0000994 185.1541 151.9748  1.00182186 40534
DIRECTV 12              
1 36131U 09075A   24294.19007740 -.00000107  00000+0  00000+0 0  9991
2 36131   0.0330  64.9841 0000267 234.5210  55.3723  1.00271551 40489
BEIDOU-2 G1             
1 36287U 10001A   24294.61510253 -.00000284  00000+0  00000+0 0  9995
2 36287   2.8917  59.4303 0003726 257.8012  74.1925  1.00267959 54109
RADUGA-1M 2             
1 36358U 10002A   24294.62750860 -.00000187  00000+0  00000+0 0  9998
2 36358   2.0419  86.7156 0003820 150.5346 103.2064  1.00269254 44028
SDO                     
1 36395U 10005A   24294.48107330 -.00000061  00000+0  00000+0 0  9995
2 36395  33.3833  95.6313 0001808 159.8866 205.4782  1.00273307 54008
INTELSAT 16 (IS-16)     
1 36397U 10006A   24294.43243689 -.00000248  00000+0  00000+0 0  9998
2 36397   0.0145 273.1205 0002719 313.6032 242.1505  1.00271417 53591
EWS-G2 (GOES 15)        
1 36411U 10008A   24294.50327391  .00000034  00000+0  00000+0 0  9990
2 36411   0.2752 274.0132 0006935 318.7838  39.1577  1.00273022 53572
ECHOSTAR 14             
1 36499U 10010A   24294.54450865 -.00000004  00000+0  00000+0 0  9994
2 36499   0.0146 244.8222 0002253 327.2080 254.6092  1.00274420 40497
SES-1                   
1 36516U 10016A   24294.56090566 -.00000118  00000+0  00000+0 0  9996
2 36516   0.0246 297.3134 0002867 281.5206 271.6220  1.00271611 52973
ASTRA 3B                
1 36581U 10021A   24294.29493955  .00000134  00000+0  00000+0 0  9990
2 36581   0.0188 285.0161 0003329 272.5370 321.4114  1.00273645 52818
COMSATBW-2              
1 36582U 10021B   24294.30049392  .00000085  00000+0  00000+0 0  9990
2 36582   0.0517  85.1090 0003295 147.8493 277.6666  1.00271403 52899
BEIDOU-2 G3             
1 36590U 10024A   24294.62498807 -.00000137  00000+0  00000+0 0  9995
2 36590   3.0915  61.8137 0003817 333.4398 298.8751  1.00269270 52702
BADR-5                  
1 36592U 10025A   24294.29493955  .00000141  00000+0  00000+0 0  9994
2 36592   0.0339 139.7134 0005309  54.2026 327.5201  1.00269617 47155
COMS 1                  
1 36744U 10032A   24294.60968858 -.00000347  00000+0  00000+0 0  9994
2 36744   3.2712  83.0855 0001037 140.7711 153.3539  1.00271333 45022
ARABSAT-5A              
1 36745U 10032B   24294.34702096  .00000150  00000+0  00000+0 0  9997
2 36745   0.0728  51.6408 0003589 138.3145 354.7787  1.00273052 52589
ECHOSTAR 15             
1 36792U 10034A   24294.42688255 -.00000285  00000+0  00000+0 0  9990
2 36792   0.0378  80.9040 0002582  96.3931 304.1386  1.00272126 52267
BEIDOU-2 IGSO-1         
1 36828U 10036A   24285.63723772 -.00000114  00000+0  00000+0 0  9990
2 36828  54.2542 168.5167 0040838 203.3275 342.3592  1.00248585 52053
NILESAT 201             
1 36830U 10037A   24294.31264828 -.00000061  00000+0  00000+0 0  9992
2 36830   0.0423 116.5135 0005804  93.8652 284.4662  1.00272061 52304
RASCOM-QAF 1R           
1 36831U 10037B   24294.30743817  .00000016  00000+0  00000+0 0  9991
2 36831   0.0346 111.6755 0006451 110.5766 280.6131  1.00272519 52234
AEHF-1 (USA 214)        
1 36868U 10039A   24294.03452159  .00000150  00000+0  00000+0 0  9998
2 36868   6.6957  75.7116 0003121 112.6213 243.1283  1.00302855 47587
XM-5                    
1 37185U 10053A   24294.54833045 -.00000027  00000+0  00000+0 0  9994
2 37185   0.0345  85.5082 0000103 283.9931 102.2329  1.00269126 51423
BSAT-3B                 
1 37207U 10056B   24292.83660425 -.00000352  00000+0  00000+0 0  9993
2 37207   0.0680  49.1560 0003910 223.1959 166.4952  1.00271366 51199
BEIDOU-2 G4             
1 37210U 10057A   24294.54920576 -.00000115  00000+0  00000+0 0  9991
2 37210   2.1471  69.8767 0008996 170.7499 146.6273  1.00270065 51222
SKYTERRA 1              
1 37218U 10061A   24294.56067921 -.00000120  00000+0  00000+0 0  9998
2 37218   3.8620  49.3263 0005438 198.2463 242.4760  1.00271324 51137
HYLAS 1                 
1 37237U 10065A   24294.54771781 -.00000126  00000+0  00000+0 0  9993
2 37237   4.0955  80.3558 0002838 156.1244 148.9161  1.00270943   826
INTELSAT 17 (IS-17)     
1 37238U 10065B   24294.60813032 -.00000006  00000+0  00000+0 0  9994
2 37238   0.0143 230.0080 0002705 348.4558  96.0371  1.00271947 47173
BEIDOU-2 IGSO-2         
1 37256U 10068A   24293.39841104 -.00000210  00000+0  00000+0 0  9990
2 37256  48.6532 279.3005 0039709 218.0064 141.8453  1.00262627 50724
EUTELSAT KA-SAT 9A      
1 37258U 10069A   24294.30604829  .00000059  00000+0  00000+0 0  9996
2 37258   0.0830 287.8392 0001248 303.2656 277.3680  1.00275434 37949
HISPASAT 30W-5          
1 37264U 10070A   24294.36368896 -.00000219  00000+0  00000+0 0  9991
2 37264   0.0510  98.2325 0004969  94.9638 297.0762  1.00271398 47124
